TRANSPORTER-12 OBJECT F 
1 62614U 25009F   26068.76753411  .00324599  00000+0  22214-2 0  9995
2 62614  97.3860 159.0379 0006077 265.7860  94.2710 15.73813521 64258
STARLINK-11543 [DTC]    
1 62981U 25031A   26068.29168389  .00314870  00000+0  23638-2 0  9991
2 62981  42.9999   3.5177 0002043  26.8879 333.2094 15.70857361 62681
