[{"OBJECT_NAME":"TRANSPORTER-12 OBJECT F","OBJECT_ID":"2025-009F","EPOCH":"2026-03-09T18:25:14.947104","MEAN_MOTION":15.73813521,"ECCENTRICITY":0.00060767,"INCLINATION":97.386,"RA_OF_ASC_NODE":159.0379,"ARG_OF_PERICENTER":265.786,"MEAN_ANOMALY":94.271,"EPHEMERIS_TYPE":0,"CLASSIFICATION_TYPE":"U","NORAD_CAT_ID":62614,"ELEMENT_SET_NO":999,"REV_AT_EPOCH":6425,"BSTAR":0.0022214492,"MEAN_MOTION_DOT":0.00324599,"MEAN_MOTION_DDOT":0},{"OBJECT_NAME":"STARLINK-11543 [DTC]","OBJECT_ID":"2025-031A","EPOCH":"2026-03-09T07:00:01.488096","MEAN_MOTION":15.70857361,"ECCENTRICITY":0.00020437,"INCLINATION":42.9999,"RA_OF_ASC_NODE":3.5177,"ARG_OF_PERICENTER":26.8879,"MEAN_ANOMALY":333.2094,"EPHEMERIS_TYPE":0,"CLASSIFICATION_TYPE":"U","NORAD_CAT_ID":62981,"ELEMENT_SET_NO":999,"REV_AT_EPOCH":6268,"BSTAR":0.00236384,"MEAN_MOTION_DOT":0.0031487,"MEAN_MOTION_DDOT":0}]
